[{"OBJECT_NAME":"STARLINK-5432","OBJECT_ID":"2022-177AE","EPOCH":"2026-03-09T22:00:01.999584","MEAN_MOTION":15.11732935,"ECCENTRICITY":0.00010752,"INCLINATION":43.0007,"RA_OF_ASC_NODE":119.0987,"ARG_OF_PERICENTER":287.7393,"MEAN_ANOMALY":278.5233,"EPHEMERIS_TYPE":0,"CLASSIFICATION_TYPE":"U","NORAD_CAT_ID":54848,"ELEMENT_SET_NO":999,"REV_AT_EPOCH":577,"BSTAR":0.0014997127,"MEAN_MOTION_DOT":0.00025882,"MEAN_MOTION_DDOT":0},{"OBJECT_NAME":"UNKNOWN","OBJECT_ID":"","EPOCH":"2026-03-09T16:30:44.564256","MEAN_MOTION":14.36564228,"ECCENTRICITY":0.0359571,"INCLINATION":65.6735,"RA_OF_ASC_NODE":282.8329,"ARG_OF_PERICENTER":31.2915,"MEAN_ANOMALY":28.2093,"EPHEMERIS_TYPE":0,"CLASSIFICATION_TYPE":"U","NORAD_CAT_ID":87764,"ELEMENT_SET_NO":999,"REV_AT_EPOCH":63160,"BSTAR":0.0015438,"MEAN_MOTION_DOT":9.503e-5,"MEAN_MOTION_DDOT":0}]
